IRIDIUM 116             
1 43072U 17083C   23237.92008109  .00000363  00000+0  12261-3 0  9997
2 43072  86.3973  30.9075 0001997  91.7889 268.3536 14.34214400297077
IRIDIUM 130             
1 43073U 17083D   23237.88837090  .00000290  00000+0  96372-4 0  9997
2 43073  86.3983  31.0968 0002158  94.5357 265.6085 14.34216474297019
IRIDIUM 151             
1 43074U 17083E   23237.86300253  .00000353  00000+0  11915-3 0  9991
2 43074  86.3978  30.9664 0001946  95.9369 264.2049 14.34218110297033
IRIDIUM 134             
1 43075U 17083F   23237.97082686  .00000347  00000+0  11697-3 0  9991
2 43075  86.3977  30.9150 0002217  90.9536 269.1913 14.34218749297016
IRIDIUM 137             
1 43076U 17083G   23237.84397789  .00000356  00000+0  12010-3 0  9991
2 43076  86.3980  31.0409 0001926  89.9411 270.2006 14.34217210297069
IRIDIUM 141             
1 43077U 17083H   23237.83763248  .00000321  00000+0  10741-3 0  9999
2 43077  86.3974  30.9317 0002140  97.2212 262.9227 14.34215818297064
IRIDIUM 153             
1 43078U 17083J   23237.85957834  .00000376  00000+0  12735-3 0  9993
2 43078  86.4021 359.3898 0002443 100.3701 259.7770 14.34219302298178
IRIDIUM 131             
1 43079U 17083K   23237.89471304  .00000351  00000+0  11841-3 0  9991
2 43079  86.3981  31.0256 0002211  96.1619 263.9829 14.34217811297004
